1 45625U 20034B   25330.18530593  .00008477  00000+0  35554-3 0  9998
2 45625  97.5508 120.6185 0010461  58.5529 301.6729 15.23698696305233
